[{"OBJECT_NAME":"SHIYAN-6 01 (SY-6 01)","OBJECT_ID":"2018-094B","EPOCH":"2026-03-09T23:04:36.967872","MEAN_MOTION":15.28649156,"ECCENTRICITY":0.00144834,"INCLINATION":97.3669,"RA_OF_ASC_NODE":84.0964,"ARG_OF_PERICENTER":135.6758,"MEAN_ANOMALY":224.5644,"EPHEMERIS_TYPE":0,"CLASSIFICATION_TYPE":"U","NORAD_CAT_ID":43711,"ELEMENT_SET_NO":999,"REV_AT_EPOCH":40632,"BSTAR":0.00024768444,"MEAN_MOTION_DOT":6.847e-5,"MEAN_MOTION_DDOT":0},{"OBJECT_NAME":"STARLINK-35755","OBJECT_ID":"2025-303A","EPOCH":"2026-03-09T02:09:41.884704","MEAN_MOTION":15.27594287,"ECCENTRICITY":0.00017003,"INCLINATION":42.9997,"RA_OF_ASC_NODE":314.0948,"ARG_OF_PERICENTER":332.6659,"MEAN_ANOMALY":27.4103,"EPHEMERIS_TYPE":0,"CLASSIFICATION_TYPE":"U","NORAD_CAT_ID":67163,"ELEMENT_SET_NO":999,"REV_AT_EPOCH":1264,"BSTAR":0.001451006,"MEAN_MOTION_DOT":0.00039901,"MEAN_MOTION_DDOT":0}]
